OBJECT_NAME,OBJECT_ID,EPOCH,MEAN_MOTION,ECCENTRICITY,INCLINATION,RA_OF_ASC_NODE,ARG_OF_PERICENTER,MEAN_ANOMALY,EPHEMERIS_TYPE,CLASSIFICATION_TYPE,NORAD_CAT_ID,ELEMENT_SET_NO,REV_AT_EPOCH,BSTAR,MEAN_MOTION_DOT,MEAN_MOTION_DDOT
KUIPER-00150,2025-217J,2026-06-01T02:35:57.034464,14.79939392,.00006147,51.9020,41.7380,95.6104,264.4928,0,U,65770,999,3712,.50801267E-3,.3654E-4,0
KUIPER-00151,2025-217K,2026-06-02T19:18:40.489056,14.79934784,.00007245,51.9020,26.7339,102.9988,257.1055,0,U,65771,999,3748,.26811484E-3,.1823E-4,0
KUIPER-00152,2025-217L,2026-06-02T18:49:27.425280,14.79935175,.0000841,51.9006,14.3102,115.1190,244.9860,0,U,65772,999,3765,.11873E-3,.684E-5,0
KUIPER-00153,2025-217M,2026-06-01T00:48:56.717856,14.80000069,.00009972,51.9035,17.1186,121.1222,238.9839,0,U,65773,999,3746,.69679147E-3,.5103E-4,0
KUIPER-00155,2025-217N,2026-06-02T19:39:56.576448,14.79940094,.00007437,51.9024,341.6850,129.3218,230.7810,0,U,65774,999,3811,.34718455E-3,.2427E-4,0
KUIPER-00156,2025-217P,2026-06-02T19:45:51.111936,14.79942063,.00007416,51.9049,9.1826,135.8272,224.2750,0,U,65775,999,3772,.40917627E-3,.29E-4,0
KUIPER-00163,2025-217R,2026-06-03T12:00:22.000032,15.84569096,.0003495,51.8923,336.8387,249.6968,292.0865,0,U,65777,999,422,.53603E-3,.127201E-2,0
KUIPER-00165,2025-217S,2026-06-02T19:30:18.957888,14.79940184,.00007842,51.9010,19.1873,113.8364,246.2680,0,U,65778,999,3758,.36796521E-3,.2585E-4,0
KUIPER-00166,2025-217T,2026-06-02T19:01:07.078656,14.79936586,.00004255,51.9019,6.8175,105.9075,254.1934,0,U,65779,999,3775,.32292314E-3,.2242E-4,0
KUIPER-00167,2025-217U,2026-06-02T19:14:43.184544,14.79954676,.0001165,51.8958,29.1576,145.0202,215.0837,0,U,65780,999,3744,.47390213E-4,.14E-5,0
KUIPER-00168,2025-217V,2026-06-02T18:04:43.385088,14.79936552,.00005863,51.9011,11.9542,74.8770,285.2258,0,U,65781,999,3768,.39685191E-3,.2806E-4,0
KUIPER-00169,2025-217W,2026-06-02T19:34:12.160128,14.79938978,.00006431,51.9005,16.6869,118.8280,241.2747,0,U,65782,999,3762,.32148845E-3,.2231E-4,0
KUIPER-00170,2025-217X,2026-06-02T19:26:13.277760,14.79914950,.00006604,51.8996,21.6770,111.3661,248.7372,0,U,65783,999,3755,-.43912435E-3,-.3565E-4,0
KUIPER-00172,2025-217Z,2026-06-03T12:00:22.000032,14.79872659,.0001842,51.8997,1.1535,17.9886,140.9675,0,U,65785,999,568,.44041E-2,.33472E-3,0
KUIPER-00173,2025-217AA,2026-06-02T18:45:34.863264,14.79939613,.0001015,51.9012,16.8346,101.2867,258.8209,0,U,65786,999,3761,.37699E-3,.2654E-4,0
KUIPER-00174,2025-217AB,2026-06-02T18:53:18.881376,14.79939375,.0000797,51.9035,11.8508,115.4647,244.6398,0,U,65787,999,3768,.14164E-3,.859E-5,0
KUIPER-00176,2025-217AC,2026-06-02T20:07:17.328864,14.79937415,.00008701,51.9016,26.5709,114.6471,245.4582,0,U,65788,999,3748,.27006338E-3,.1838E-4,0
STARLINK-35330,2025-218A,2026-06-03T12:00:22.000032,15.05624903,.0002181,97.4073,16.8745,89.1088,43.9733,0,U,65791,999,568,.42282E-2,.61437E-3,0
STARLINK-35373,2025-218B,2026-06-03T04:14:24.142848,15.05675852,.0001553,97.4143,16.6375,51.8535,308.2832,0,U,65792,999,3783,.47844E-3,.6857E-4,0
STARLINK-35383,2025-218C,2026-06-03T11:48:57.216096,15.05655480,.0002439,97.4132,16.9779,166.1686,193.9608,0,U,65793,999,3788,.58459E-4,.786E-5,0
STARLINK-35378,2025-218D,2026-06-03T04:50:16.087776,15.05661416,.0002284,97.4125,16.6027,62.3419,297.8040,0,U,65794,999,3783,.32814E-3,.4681E-4,0
STARLINK-35406,2025-218E,2026-06-03T09:25:25.055040,15.05656785,.0003271,97.4119,16.8073,58.3971,301.7575,0,U,65795,999,3786,.56157E-3,.8056E-4,0
STARLINK-35390,2025-218F,2026-06-03T04:02:26.996928,15.05652431,.000392,97.4096,16.6557,35.2075,324.9411,0,U,65796,999,3783,.12045E-2,.17367E-3,0
STARLINK-35412,2025-218G,2026-06-03T03:38:32.292960,15.05637121,.00030035,97.4183,16.6822,65.0989,295.0550,0,U,65797,999,3783,.27838094E-3,.396E-4,0
STARLINK-35414,2025-218H,2026-06-03T12:24:50.273856,15.05783323,.0000741,97.4107,16.9494,108.6716,251.4592,0,U,65798,999,3788,.57287E-2,.83877E-3,0
STARLINK-35357,2025-218J,2026-06-03T04:34:19.020288,15.05663291,.0002274,97.4141,16.6209,71.3605,288.7869,0,U,65799,999,3783,.3158E-3,.4503E-4,0
STARLINK-35300,2025-218K,2026-06-03T12:00:22.000032,15.05621508,.0002567,97.4072,16.8816,88.2428,59.8322,0,U,65800,999,578,.43962E-2,.63898E-3,0
STARLINK-35296,2025-218L,2026-06-03T11:44:58.180992,15.05651897,.000203,97.4113,16.9877,130.1016,230.0390,0,U,65801,999,3788,-.12159E-4,-.234E-5,0
STARLINK-34919,2025-218M,2026-06-03T08:57:29.949120,15.05659221,.000149,97.4124,16.8404,77.1769,282.9624,0,U,65802,999,3786,.35162E-3,.502E-4,0
STARLINK-35286,2025-218N,2026-06-03T04:54:15.562656,15.05647695,.0002304,97.4135,16.6007,67.8338,292.3133,0,U,65803,999,3783,-.21769E-4,-.372E-5,0
