KUIPER-00150            
1 65770U 25217J   26152.10829901  .00003654  00000+0  50801-3 0  9992
2 65770  51.9020  41.7380 0000614  95.6104 264.4928 14.79939392 37127
KUIPER-00151            
1 65771U 25217K   26153.80463529  .00001823  00000+0  26811-3 0  9991
2 65771  51.9020  26.7339 0000724 102.9988 257.1055 14.79934784 37488
KUIPER-00152            
1 65772U 25217L   26153.78434520  .00000684  00000+0  11873-3 0  9994
2 65772  51.9006  14.3102 0000841 115.1190 244.9860 14.79935175 37657
KUIPER-00153            
1 65773U 25217M   26152.03398979  .00005103  00000+0  69679-3 0  9997
2 65773  51.9035  17.1186 0000997 121.1222 238.9839 14.80000069 37463
KUIPER-00155            
1 65774U 25217N   26153.81940482  .00002427  00000+0  34718-3 0  9999
2 65774  51.9024 341.6850 0000743 129.3218 230.7810 14.79940094 38110
KUIPER-00156            
1 65775U 25217P   26153.82350824  .00002900  00000+0  40918-3 0  9991
2 65775  51.9049   9.1826 0000741 135.8272 224.2750 14.79942063 37722
KUIPER-00163            
1 65777U 25217R   26154.50025463  .00127201  00000+0  53603-3 0  9994
2 65777  51.8923 336.8387 0003495 249.6968 292.0865 15.84569096  4228
KUIPER-00165            
1 65778U 25217S   26153.81271942  .00002585  00000+0  36797-3 0  9995
2 65778  51.9010  19.1873 0000784 113.8364 246.2680 14.79940184 37583
KUIPER-00166            
1 65779U 25217T   26153.79244304  .00002242  00000+0  32292-3 0  9991
2 65779  51.9019   6.8175 0000425 105.9075 254.1934 14.79936586 37754
KUIPER-00167            
1 65780U 25217U   26153.80188871  .00000140  00000+0  47390-4 0  9992
2 65780  51.8958  29.1576 0001165 145.0202 215.0837 14.79954676 37443
KUIPER-00168            
1 65781U 25217V   26153.75327992  .00002806  00000+0  39685-3 0  9994
2 65781  51.9011  11.9542 0000586  74.8770 285.2258 14.79936552 37687
KUIPER-00169            
1 65782U 25217W   26153.81541852  .00002231  00000+0  32149-3 0  9995
2 65782  51.9005  16.6869 0000643 118.8280 241.2747 14.79938978 37627
KUIPER-00170            
1 65783U 25217X   26153.80987590 -.00003565  00000+0 -43912-3 0  9991
2 65783  51.8996  21.6770 0000660 111.3661 248.7372 14.79914950 37555
KUIPER-00172            
1 65785U 25217Z   26154.50025463  .00033472  00000+0  44041-2 0  9994
2 65785  51.8997   1.1535 0001842  17.9886 140.9675 14.79872659  5680
KUIPER-00173            
1 65786U 25217AA  26153.78165351  .00002654  00000+0  37699-3 0  9995
2 65786  51.9012  16.8346 0001015 101.2867 258.8209 14.79939613 37615
KUIPER-00174            
1 65787U 25217AB  26153.78702409  .00000859  00000+0  14164-3 0  9994
2 65787  51.9035  11.8508 0000797 115.4647 244.6398 14.79939375 37689
KUIPER-00176            
1 65788U 25217AC  26153.83839501  .00001838  00000+0  27006-3 0  9992
2 65788  51.9016  26.5709 0000870 114.6471 245.4582 14.79937415 37488
STARLINK-35330          
1 65791U 25218A   26154.50025463  .00061437  00000+0  42282-2 0  9999
2 65791  97.4073  16.8745 0002181  89.1088  43.9733 15.05624903  5680
STARLINK-35373          
1 65792U 25218B   26154.17666832  .00006857  00000+0  47844-3 0  9999
2 65792  97.4143  16.6375 0001553  51.8535 308.2832 15.05675852 37839
STARLINK-35383          
1 65793U 25218C   26154.49232889  .00000786  00000+0  58459-4 0  9996
2 65793  97.4132  16.9779 0002439 166.1686 193.9608 15.05655480 37880
STARLINK-35378          
1 65794U 25218D   26154.20157509  .00004681  00000+0  32814-3 0  9995
2 65794  97.4125  16.6027 0002284  62.3419 297.8040 15.05661416 37830
STARLINK-35406          
1 65795U 25218E   26154.39265110  .00008056  00000+0  56157-3 0  9990
2 65795  97.4119  16.8073 0003271  58.3971 301.7575 15.05656785 37866
STARLINK-35390          
1 65796U 25218F   26154.16836802  .00017367  00000+0  12045-2 0  9990
2 65796  97.4096  16.6557 0003920  35.2075 324.9411 15.05652431 37833
STARLINK-35412          
1 65797U 25218G   26154.15176265  .00003960  00000+0  27838-3 0  9991
2 65797  97.4183  16.6822 0003003  65.0989 295.0550 15.05637121 37834
STARLINK-35414          
1 65798U 25218H   26154.51724854  .00083877  00000+0  57287-2 0  9990
2 65798  97.4107  16.9494 0000741 108.6716 251.4592 15.05783323 37880
STARLINK-35357          
1 65799U 25218J   26154.19049792  .00004503  00000+0  31580-3 0  9994
2 65799  97.4141  16.6209 0002274  71.3605 288.7869 15.05663291 37832
STARLINK-35300          
1 65800U 25218K   26154.50025463  .00063898  00000+0  43962-2 0  9999
2 65800  97.4072  16.8816 0002567  88.2428  59.8322 15.05621508  5784
STARLINK-35296          
1 65801U 25218L   26154.48956228 -.00000234  00000+0 -12159-4 0  9992
2 65801  97.4113  16.9877 0002030 130.1016 230.0390 15.05651897 37882
STARLINK-34919          
1 65802U 25218M   26154.37326330  .00005020  00000+0  35162-3 0  9990
2 65802  97.4124  16.8404 0001490  77.1769 282.9624 15.05659221 37867
STARLINK-35286          
1 65803U 25218N   26154.20434679 -.00000372  00000+0 -21769-4 0  9995
2 65803  97.4135  16.6007 0002304  67.8338 292.3133 15.05647695 37839
